      2.10          N: GNSS NAV DATA                        RINEX VERSION / TYPE
fic2rin                                 03/27/2022 00:17:19 PGM / RUN BY / DATE
                                                            END OF HEADER
20 22  3 26  6  0  0.0 5.161357112229e-04-2.273736754432e-13 0.000000000000e+00
    8.500000000000e+01-1.111562500000e+02 5.105212652599e-09 2.275064702034e-01
   -5.690380930901e-06 4.936483339407e-03 5.997717380524e-06 5.153539453506e+03
    5.400000000000e+05 6.891787052155e-08-1.660518179544e+00 7.450580596924e-09
    9.420023383385e-01 2.555000000000e+02-3.130821535947e+00-8.433208419838e-09
    3.000124967247e-11 1.000000000000e+00 2.202000000000e+03 0.000000000000e+00
    2.400000000000e+00 0.000000000000e+00-8.381903171539e-09 8.500000000000e+01
    5.328000000000e+05 4.000000000000e+00
17 22  3 26  6  0  0.0 5.921209231019e-04 4.888534022029e-12 0.000000000000e+00
    9.200000000000e+01 8.743750000000e+01 3.934092442170e-09 1.387925185638e+00
    4.453584551811e-06 1.349103520624e-02 6.068497896194e-06 5.153782894135e+03
    5.400000000000e+05-1.862645149231e-08 2.745941230583e+00-3.948807716370e-07
    9.795823616630e-01 2.694687500000e+02-1.491572638970e+00-7.981046728346e-09
    1.914365455291e-10 1.000000000000e+00 2.202000000000e+03 0.000000000000e+00
    3.400000000000e+00 0.000000000000e+00-1.117587089539e-08 9.200000000000e+01
    5.328000000000e+05 4.000000000000e+00
23 22  3 26  6  0  0.0-9.908806532621e-06-3.069544618484e-12 0.000000000000e+00
    2.600000000000e+01-1.013125000000e+02 4.455542734096e-09-1.510973067099e+00
   -5.263835191727e-06 2.030452364124e-03 6.482005119324e-06 5.153706527710e+03
    5.400000000000e+05 3.539025783539e-08-1.532642144697e+00-3.911554813385e-08
    9.676096455342e-01 2.590000000000e+02 3.002710869520e+00-8.037477650349e-09
    5.535944880039e-11 1.000000000000e+00 2.202000000000e+03 0.000000000000e+00
    2.400000000000e+00 0.000000000000e+00-8.381903171539e-09 2.820000000000e+02
    5.328000000000e+05 4.000000000000e+00
14 22  3 26  6  0  0.0-9.731482714415e-05-3.410605131648e-12 0.000000000000e+00
    1.570000000000e+02 5.315625000000e+01 4.452328314488e-09-2.016504692749e+00
    2.715736627579e-06 1.599137438461e-03 8.800998330116e-06 5.153653226852e+03
    5.400000000000e+05-2.421438694000e-08 1.676183163391e+00 7.450580596924e-09
    9.530134418409e-01 2.075937500000e+02 3.037640339833e+00-7.910329496975e-09
   -3.410856361573e-10 1.000000000000e+00 2.202000000000e+03 0.000000000000e+00
    2.400000000000e+00 0.000000000000e+00-7.450580596924e-09 6.690000000000e+02
    5.328000000000e+05 4.000000000000e+00
18 22  3 26  6  0  0.0 2.110879868269e-04-8.981260180008e-12 0.000000000000e+00
    2.280000000000e+02-5.062500000000e+00 4.430898850437e-09-4.990167204037e-01
   -2.868473529816e-07 2.156329574063e-03 2.879649400711e-06 5.153612373352e+03
    5.400000000000e+05 6.146728992462e-08-2.532322864909e+00 2.421438694000e-08
    9.711780187198e-01 3.270312500000e+02 3.073193068838e+00-8.244271978448e-09
    1.864363372504e-10 1.000000000000e+00 2.202000000000e+03 0.000000000000e+00
    2.400000000000e+00 0.000000000000e+00-8.381903171539e-09 9.960000000000e+02
    5.328000000000e+05 4.000000000000e+00
11 22  3 26  6  0  0.0-5.537830293179e-05 7.389644451905e-12 0.000000000000e+00
    3.400000000000e+01-2.490625000000e+01 4.718767984199e-09 1.503757251468e+00
   -1.421198248863e-06 2.946471795440e-04 2.520158886909e-06 5.153789115906e+03
    5.400000000000e+05-2.793967723846e-08-2.496713658488e+00 1.862645149231e-09
    9.624941457788e-01 3.343437500000e+02 2.706090221508e+00-8.412493271255e-09
    1.210764718925e-10 1.000000000000e+00 2.202000000000e+03 0.000000000000e+00
    1.536000000000e+03 6.300000000000e+01-8.847564458847e-09 5.460000000000e+02
    5.328000000000e+05 4.000000000000e+00
28 22  3 26  6  0  0.0 3.748903982341e-04-3.410605131648e-13 0.000000000000e+00
    1.700000000000e+01 5.784375000000e+01 4.050883021252e-09 1.902863302854e+00
    2.885237336159e-06 1.669845893048e-02 8.597970008850e-06 5.153691375732e+03
    5.400000000000e+05 3.539025783539e-07 1.730168083805e+00-5.960464477539e-08
    9.686842685823e-01 2.135937500000e+02-1.283109957949e+00-7.536028191537e-09
   -4.053740283126e-10 1.000000000000e+00 2.202000000000e+03 0.000000000000e+00
    2.400000000000e+00 6.300000000000e+01-1.117587089539e-08 1.700000000000e+01
    5.328000000000e+05 4.000000000000e+00
 2 22  3 26  8  0  0.0-6.526489742100e-04-3.410605131648e-13 0.000000000000e+00
    1.010000000000e+02-7.093750000000e+00 4.645193490954e-09 4.337618009487e-01
   -5.196779966354e-07 2.056418301072e-02 2.907589077950e-06 5.153631328583e+03
    5.472000000000e+05-2.570450305939e-07-2.629660784750e+00-1.695007085800e-07
    9.656644677326e-01 3.259375000000e+02-1.429658892746e+00-8.763936481704e-09
    9.750406143553e-11 1.000000000000e+00 2.202000000000e+03 0.000000000000e+00
    2.400000000000e+00 0.000000000000e+00-1.769512891769e-08 1.010000000000e+02
    5.400000000000e+05 4.000000000000e+00
 1 22  3 26  8  0  0.0 3.999336622655e-04-8.981260180008e-12 0.000000000000e+00
    1.020000000000e+02-2.875000000000e+00 4.031596503605e-09 2.948882999213e-01
   -2.291053533554e-07 1.161394617520e-02 3.419816493988e-06 5.153670179367e+03
    5.472000000000e+05-4.842877388000e-08-2.539614361681e+00 1.266598701477e-07
    9.873871086135e-01 3.291875000000e+02 8.875549939081e-01-8.214985044244e-09
    1.050043738536e-10 1.000000000000e+00 2.202000000000e+03 0.000000000000e+00
    3.400000000000e+00 0.000000000000e+00 5.122274160385e-09 1.020000000000e+02
    5.400000000000e+05 4.000000000000e+00
 5 22  3 26  8  0  0.0-7.601734250784e-05-1.364242052659e-12 0.000000000000e+00
    2.100000000000e+01-1.241875000000e+02 4.601263089648e-09 2.955627576746e+00
   -6.452202796936e-06 5.873860092834e-03 7.199123501778e-06 5.153693855286e+03
    5.472000000000e+05 1.862645149231e-09-1.545795558601e+00-9.499490261078e-08
    9.597334364985e-01 2.415000000000e+02 1.008317823662e+00-8.006762085208e-09
    4.678766317969e-11 1.000000000000e+00 2.202000000000e+03 0.000000000000e+00
    2.400000000000e+00 0.000000000000e+00-1.117587089539e-08 2.100000000000e+01
    5.400000000000e+05 4.000000000000e+00
12 22  3 26  8  0  0.0-1.906151883304e-04-5.798028723802e-12 0.000000000000e+00
    1.100000000000e+01 5.406250000000e+01 4.259463138022e-09-1.011438258646e+00
    2.823770046234e-06 8.728540153243e-03 8.743256330490e-06 5.153579757690e+03
    5.472000000000e+05-3.911554813385e-08 1.708057475587e+00 1.452863216400e-07
    9.695986991748e-01 2.163437500000e+02 1.262342867362e+00-7.935687696103e-09
   -4.818057834305e-10 1.000000000000e+00 2.202000000000e+03 0.000000000000e+00
    2.400000000000e+00 0.000000000000e+00-1.257285475731e-08 1.100000000000e+01
    5.400000000000e+05 4.000000000000e+00
16 22  3 26  8  0  0.0-4.848954267800e-04-4.206412995700e-12 0.000000000000e+00
    1.900000000000e+01 3.503125000000e+01 4.145172663080e-09-2.868195136663e+00
    1.778826117516e-06 1.279663294554e-02 8.776783943176e-06 5.153624536514e+03
    5.472000000000e+05 1.117587089539e-08 1.726658056182e+00-9.313225746155e-08
    9.695241898312e-01 2.146562500000e+02 7.192804558210e-01-7.656390347961e-09
   -3.614436270064e-10 1.000000000000e+00 2.202000000000e+03 0.000000000000e+00
    2.400000000000e+00 0.000000000000e+00-1.024454832077e-08 1.900000000000e+01
    5.400000000000e+05 4.000000000000e+00
10 22  3 26  8  0  0.0-3.585591912270e-04-1.193711796077e-11 0.000000000000e+00
    5.300000000000e+01-1.058125000000e+02 4.265891977238e-09-1.749957709586e+00
   -5.550682544708e-06 7.565245381556e-03 6.496906280518e-06 5.153682792664e+03
    5.472000000000e+05 1.005828380585e-07-1.507636387953e+00-4.842877388000e-08
    9.725453672868e-01 2.576250000000e+02-2.496853570510e+00-7.889614348391e-09
    1.557207721095e-10 1.000000000000e+00 2.202000000000e+03 0.000000000000e+00
    2.400000000000e+00 0.000000000000e+00 2.328306436539e-09 5.300000000000e+01
    5.400000000000e+05 4.000000000000e+00
 8 22  3 26  8  0  0.0-6.134947761893e-05-1.591615728103e-12 0.000000000000e+00
    4.600000000000e+01 7.609375000000e+01 4.164459180726e-09 2.515200384558e+00
    3.989785909653e-06 7.418863708153e-03 7.081776857376e-06 5.153745204926e+03
    5.472000000000e+05-1.285225152969e-07 2.663420530636e+00 3.539025783539e-08
    9.643733123279e-01 2.444687500000e+02 1.378111065115e-01-7.958902948826e-09
    1.000041655749e-11 1.000000000000e+00 2.202000000000e+03 0.000000000000e+00
    2.400000000000e+00 0.000000000000e+00 5.122274160385e-09 4.600000000000e+01
    5.400000000000e+05 4.000000000000e+00
 6 22  3 26  8  0  0.0 2.442304976285e-04 1.307398633799e-11 0.000000000000e+00
    2.700000000000e+01-1.828125000000e+01 4.031239345871e-09 5.710295840742e-01
   -8.400529623032e-07 2.671160618775e-03 2.866610884666e-06 5.153692785263e+03
    5.472000000000e+05-8.009374141693e-08-2.547887031756e+00-1.024454832077e-07
    9.867526205617e-01 3.333125000000e+02-9.039294067109e-01-8.128195714834e-09
    1.828647599084e-10 1.000000000000e+00 2.202000000000e+03 0.000000000000e+00
    2.400000000000e+00 0.000000000000e+00 3.725290298462e-09 2.700000000000e+01
    5.400000000000e+05 4.000000000000e+00
 3 22  3 26  8  0  0.0-1.800064928830e-04-1.625721779419e-11 0.000000000000e+00
    1.100000000000e+02-9.593750000000e+01 4.365181827345e-09-8.377036655601e-01
   -4.921108484268e-06 3.960280097090e-03 7.033348083496e-06 5.153658880234e+03
    5.472000000000e+05 1.490116119385e-08-1.504858950204e+00 8.568167686462e-08
    9.727267062232e-01 2.533750000000e+02 9.450467937466e-01-8.006762085208e-09
    5.035924052165e-11 1.000000000000e+00 2.202000000000e+03 0.000000000000e+00
    3.400000000000e+00 0.000000000000e+00 1.862645149231e-09 1.100000000000e+02
    5.400000000000e+05 4.000000000000e+00
